WORLDVIEW-2 (WV-2)      
1 35946U 09055A   22252.14012778 -.00000024  00000+0  66555-5 0  9997
2 35946  98.4823 326.2138 0002142 103.3279 256.8158 14.37659570677936
DMSP 5D-3 F18 (USA 210) 
1 35951U 09057A   22252.14255091  .00000201  00000+0  12968-3 0  9995
2 35951  98.7304 229.4963 0010417 203.2639 156.8063 14.13550509664939
NSS-12                  
1 36032U 09058A   22251.89999292  .00000050  00000+0  00000+0 0  9998
2 36032   0.0463 303.7296 0002786 226.7089 198.4843  1.00267936 47109
THOR 6                  
1 36033U 09058B   22252.09294750 -.00000032  00000+0  00000+0 0  9990
2 36033   0.0236 234.8103 0002026 303.6715 202.2626  1.00272345 47166
SMOS                    
1 36036U 09059A   22251.49603135  .00000198  00000+0  77094-4 0  9992
2 36036  98.4445  77.8182 0001102  86.0581 274.0733 14.39779282675218
PROBA-2                 
1 36037U 09059B   22251.80793462  .00000134  00000+0  43092-4 0  9992
2 36037  98.2251  76.8400 0012751 207.4979 152.5544 14.53287804681369
SJ-11-01                
1 36088U 09061A   22252.18745631  .00000353  00000+0  82025-4 0  9990
2 36088  97.9309 263.7095 0012724  45.1961 315.0277 14.60446534683366
COSMOS 2455             
1 36095U 09063A   22252.12446157 -.00000057  00000+0  13263-4 0  9995
2 36095  67.1502   1.2077 0003269 274.5874  85.4837 13.96797859652989
INTELSAT 14 (IS-14)     
1 36097U 09064A   22251.79718785 -.00000295  00000+0  00000+0 0  9993
2 36097   0.0132 122.0044 0002431  45.2330  62.5804  1.00270458 46791
EUTELSAT 36B            
1 36101U 09065A   22252.10027233  .00000133  00000+0  00000+0 0  9997
2 36101   0.0697   4.7445 0005051 160.9156 254.4414  1.00272146 47006
INTELSAT 15 (IS-15)     
1 36106U 09067A   22251.82308635 -.00000207  00000+0  00000+0 0  9993
2 36106   0.0060 200.7708 0002437 328.8535 199.6772  1.00269812 27412
WGS F3 (USA 211)        
1 36108U 09068A   22252.10864358 -.00000139  00000+0  00000+0 0  9991
2 36108   0.1831  95.8541 0000343  60.5816 308.9113  1.00269877 46703
YAOGAN 7                
1 36110U 09069A   22252.10583903 -.00000740  00000+0 -10114-3 0  9999
2 36110  98.1936 112.8769 0026140 137.4987 222.8173 14.75169826686470
COSMOS 2456 [GLONASS-M] 
1 36111U 09070A   22251.25375693  .00000037  00000+0  00000+0 0  9998
2 36111  64.3716 118.2105 0002880 326.6829 150.0746  2.13099424 99109
COSMOS 2457 [GLONASS-M] 
1 36112U 09070B   22251.87018451  .00000040  00000+0  00000+0 0  9997
2 36112  64.3550 118.0628 0005309 154.3193 203.2787  2.13101567 99112
WISE                    
1 36119U 09071A   22251.82155645  .00005941  00000+0  18022-3 0  9999
2 36119  97.2345 284.6053 0002977  48.9505 311.1995 15.34476668708280
YAOGAN 8                
1 36121U 09072A   22251.70735470  .00000109  00000+0  46580-3 0  9991
2 36121 100.2685 181.4718 0020875 178.0034 182.1160 13.04986343608994
XIWANG-1 (HOPE-1)       
1 36122U 09072B   22251.79894530 -.00000014  00000+0  76803-4 0  9992
2 36122 100.1919 220.1270 0007812 144.9686 215.1943 13.16371479611776
HELIOS 2B               
1 36124U 09073A   22252.11910360  .00013947  00000+0  27878-3 0  9997
2 36124  98.1682 205.8898 0179257 201.8869 157.4651 15.31395908680947
DIRECTV 12              
1 36131U 09075A   22251.64214556 -.00000125  00000+0  00000+0 0  9997
2 36131   0.0366 296.8709 0000143 290.6774 248.5763  1.00270991 32756
BEIDOU 3                
1 36287U 10001A   22251.90583953 -.00000301  00000+0  00000+0 0  9995
2 36287   1.6539  46.5710 0001834  14.6718  33.2027  1.00275386 46355
RADUGA-1M 2             
1 36358U 10002A   22252.11003877 -.00000207  00000+0  00000+0 0  9996
2 36358   0.0587 124.2417 0001023 257.0003  91.4804  1.00280329 46204
SDO                     
1 36395U 10005A   22252.11188810 -.00000082  00000+0  00000+0 0  9992
2 36395  31.8122 107.8681 0001336 225.0627 313.6059  1.00274844 46224
INTELSAT 16 (IS-16)     
1 36397U 10006A   22252.17379836 -.00000267  00000+0  00000+0 0  9996
2 36397   0.0164 165.4428 0002310   9.8804 159.2523  1.00269402 45916
COSMOS 2461 [GLONASS-M] 
1 36401U 10007B   22251.44294963 -.00000084  00000+0  00000+0 0  9996
2 36401  65.9633   0.7446 0018738  10.5158  54.4082  2.13103803 97466
COSMOS 2460 [GLONASS-M] 
1 36402U 10007C   22252.03777810 -.00000085  00000+0  00000+0 0  9991
2 36402  65.9497   0.6738 0002014 139.3063 331.1832  2.13106525 97476
GOES 15                 
1 36411U 10008A   22251.63264058  .00000030  00000+0  00000+0 0  9991
2 36411   0.3785 276.9181 0004955 252.7532 277.9745  1.00278106 45851
YAOGAN 9A               
1 36413U 10009A   22251.52162289 -.00000037  00000+0  53609-4 0  9991
2 36413  63.3825 316.5389 0418063  12.5130 348.5900 13.45228921614619
YAOGAN 9B               
1 36414U 10009B   22252.03236568 -.00000066  00000+0  24889-4 0  9991
2 36414  63.3854 314.8025 0417811  11.8637 349.1871 13.45240283614859
YAOGAN 9C               
1 36415U 10009C   22252.03150173 -.00000049  00000+0  41958-4 0  9996
2 36415  63.3850 315.4226 0418735  12.1546 348.9217 13.45242344614823
ECHOSTAR 14             
1 36499U 10010A   22251.63891914 -.00000021  00000+0  00000+0 0  9998
2 36499   0.0254 162.9655 0002180  11.2571 284.5712  1.00270680 32723
CRYOSAT 2               
1 36508U 10013A   22251.92222474  .00000151  00000+0  36844-4 0  9996
2 36508  92.0316 304.3663 0003719 355.7672   4.3503 14.51899655658282
SES-1                   
1 36516U 10016A   22251.64249435 -.00000136  00000+0  00000+0 0  9997
2 36516   0.0661 290.2409 0002493 236.6266 311.1014  1.00272256 45231
COSMOS 2463             
1 36519U 10017A   22251.73823608  .00000032  00000+0  18968-4 0  9992
2 36519  82.9641 181.6384 0036214 354.2527  14.1416 13.71479061619115
ASTRA 3B                
1 36581U 10021A   22251.81079110  .00000115  00000+0  00000+0 0  9991
2 36581   0.0652  59.7668 0003395 115.2862 128.1682  1.00270948 45068
COMSATBW-2              
1 36582U 10021B   22252.09573792  .00000066  00000+0  00000+0 0  9993
2 36582   0.0336 122.0579 0002537  61.7199 211.9867  1.00270721 45186
NAVSTAR 65 (USA 213)    
1 36585U 10022A   22251.63389111  .00000027  00000+0  00000+0 0  9993
2 36585  54.7545 264.1586 0103095  56.7899 124.9162  2.00569477 89960
BADR-5                  
1 36592U 10025A   22252.09826671  .00000123  00000+0  00000+0 0  9999
2 36592   0.0210 145.9829 0005838  21.1757 242.3619  1.00276154 45096
SJ-12                   
1 36596U 10027A   22251.89444536  .00001713  00000+0  14977-3 0  9996
2 36596  97.7242 238.7513 0012713 110.4590 249.7999 14.98031591667497
TANDEM-X                
1 36605U 10030A   22251.77357727 -.00000734  00000+0 -31776-4 0  9994
2 36605  97.4461 258.1920 0001632  88.4558  16.2194 15.19141053677519
COMS 1                  
1 36744U 10032A   22251.83163199 -.00000366  00000+0  00000+0 0  9996
2 36744   1.2880  92.0605 0001001  76.3391 247.0059  1.00270351 37273
ARABSAT-5A              
1 36745U 10032B   22251.81218630  .00000132  00000+0  00000+0 0  9996
2 36745   0.0574  37.1661 0005209 143.0792 130.4611  1.00271848 44835
ECHOSTAR 15             
1 36792U 10034A   22252.08082663 -.00000304  00000+0  00000+0 0  9997
2 36792   0.0495 298.8560 0002804 191.6753 185.0181  1.00273565 44596
CARTOSAT-2B             
1 36795U 10035A   22252.09715603  .00000465  00000+0  70487-4 0  9997
2 36795  97.9531 311.5424 0013298 339.0244  21.0417 14.78665636656424
AISSAT 1                
1 36797U 10035C   22251.47895140  .00001156  00000+0  13488-3 0  9990
2 36797  98.2402  78.4946 0009646 259.7614 100.2513 14.87251896658783
ALSAT 2A                
1 36798U 10035D   22252.21811556  .00000396  00000+0  73250-4 0  9992
2 36798  97.8580 290.3679 0001286  64.3043 295.8306 14.70401696651198
TISAT 1                 
1 36799U 10035E   22251.82277421  .00002482  00000+0  24326-3 0  9993
2 36799  98.1740 105.5363 0011655 174.7434 185.3908 14.93200539660402
BEIDOU 5                
1 36828U 10036A   22251.76645624 -.00000178  00000+0  00000+0 0  9994
2 36828  54.1986 175.4681 0030389 187.7693   8.5320  1.00273873 44410
NILESAT 201             
1 36830U 10037A   22251.80477427 -.00000080  00000+0  00000+0 0  9999
2 36830   0.0380 172.5700 0005771 359.9791  97.9951  1.00271244 44557
RASCOM-QAF 1R           
1 36831U 10037B   22252.09364510 -.00000003  00000+0  00000+0 0  9995
2 36831   0.0374 113.7087 0005587  62.2289 208.7801  1.00272683 44483
YAOGAN 10               
1 36834U 10038A   22252.02987043  .00000378  00000+0  55211-4 0  9997
2 36834  97.9767 262.4648 0001141  85.7684 274.3664 14.81334959653157
AEHF-1 (USA 214)        
1 36868U 10039A   22251.87863300  .00000005  00000+0  00000+0 0  9994
2 36868   4.7374  85.6283 0006744  49.0463 173.5246  1.00272363 44625
TIANHUI 1               
1 36985U 10040A   22252.15779634  .00003397  00000+0  12789-3 0  9992
2 36985  97.6642 111.2483 0029815  10.7289 104.3724 15.27442981669925
COSMOS 2464 [GLONASS-M] 
1 37139U 10041C   22251.65292877  .00000038  00000+0  00000+0 0  9996
2 37139  63.9737 237.6197 0028176   5.5990 110.5667  2.13100866 93529
COSMOS 2467             
1 37152U 10043A   22251.83735497  .00000003  00000+0 -48300-4 0  9996
2 37152  82.4584 206.5501 0000665 358.8379  15.4912 12.42913419544393
STRELA 3                
1 37153U 10043B   22251.59256276  .00000025  00000+0  10977-3 0  9994
2 37153  82.4568 216.4990 0006818 186.9338 173.1629 12.40747872543593
COSMOS 2468             
1 37154U 10043C   22251.66924126  .00000005  00000+0 -36735-4 0  9999
2 37154  82.4625 204.6782 0015694  72.3934 101.4602 12.43677397544636
QZS-1 (MICHIBIKI-1)     
1 37158U 10045A   22251.54460278 -.00000197  00000+0  00000+0 0  9998
2 37158  42.4178 132.2408 0744566 270.1379 277.4402  1.00290323 43927
YAOGAN 11               
1 37165U 10047A   22251.38922380  .00000571  00000+0  88655-4 0  9999
2 37165  98.3657  32.4610 0037826 329.6228  30.2789 14.76781883644372
